{"type": "FeatureCollection", "features": [ {"type": "Feature", "properties": {"norad_id": 44506, "name": "GPS BIII-2  (PRN 18)", "group": "gnss", "lat": 9.384952289834684, "lon": -14.881962878190475, "alt_km": 20333.036753318196, "timestamp": "2025-12-10T04:57:29.861677+00:00", "meta": {"OBJECT_NAME": "GPS BIII-2  (PRN 18)", "OBJECT_ID": "2019-056A", "EPOCH": "2025-12-09T10:21:29.039040", "MEAN_MOTION": 2.00566038, "ECCENTRICITY": 0.00577689, "INCLINATION": 55.7225, "RA_OF_ASC_NODE": 338.6833, "ARG_OF_PERICENTER": 198.4901, "MEAN_ANOMALY": 333.2213, "EPHEMERIS_TYPE": 0, "CLASSIFICATION_TYPE": "U", "NORAD_CAT_ID": 44506, "ELEMENT_SET_NO": 999, "REV_AT_EPOCH": 4626, "BSTAR": 0, "MEAN_MOTION_DOT": -8.6e-07, "MEAN_MOTION_DDOT": 0}, "tle": {"line1": "1 44506U 19056A   25343.43158610 -.00000086  00000+0  00000+0 0  9998", "line2": "2 44506  55.7225 338.6833 0057768 198.4901 333.2213  2.00566038 46261"}}, "geometry": {"type": "Point", "coordinates": [-14.881962878190475, 9.384952289834684]}}, {"type": "Feature", "properties": {"norad_id": 44542, "name": "BEIDOU-3 M24 (C46)", "group": "gnss", "lat": -15.0135381687974, "lon": 178.02832613803324, "alt_km": 21510.875103378236, "timestamp": "2025-12-10T04:57:29.861688+00:00", "meta": {"OBJECT_NAME": "BEIDOU-3 M24 (C46)", "OBJECT_ID": "2019-061A", "EPOCH": "2025-12-08T02:04:30.505152", "MEAN_MOTION": 1.86229279, "ECCENTRICITY": 0.00095745, "INCLINATION": 54.4002, "RA_OF_ASC_NODE": 189.1732, "ARG_OF_PERICENTER": 24.5539, "MEAN_ANOMALY": 335.5587, "EPHEMERIS_TYPE": 0, "CLASSIFICATION_TYPE": "U", "NORAD_CAT_ID": 44542, "ELEMENT_SET_NO": 999, "REV_AT_EPOCH": 4223, "BSTAR": 0, "MEAN_MOTION_DOT": 5.3e-07, "MEAN_MOTION_DDOT": 0}, "tle": {"line1": "1 44542U 19061A   25342.08646418  .00000053  00000+0  00000+0 0  9995", "line2": "2 44542  54.4002 189.1732 0009574  24.5539 335.5587  1.86229279 42233"}}, "geometry": {"type": "Point", "coordinates": [178.02832613803324, -15.0135381687974]}}, {"type": "Feature", "properties": {"norad_id": 44543, "name": "BEIDOU-3 M23 (C45)", "group": "gnss", "lat": -51.47403608662287, "lon": 73.23479334604365, "alt_km": 21544.703224980807, "timestamp": "2025-12-10T04:57:29.861701+00:00", "meta": {"OBJECT_NAME": "BEIDOU-3 M23 (C45)", "OBJECT_ID": "2019-061B", "EPOCH": "2025-12-08T18:00:07.463232", "MEAN_MOTION": 1.8622754, "ECCENTRICITY": 0.00060873, "INCLINATION": 54.3989, "RA_OF_ASC_NODE": 189.119, "ARG_OF_PERICENTER": 23.0878, "MEAN_ANOMALY": 334.736, "EPHEMERIS_TYPE": 0, "CLASSIFICATION_TYPE": "U", "NORAD_CAT_ID": 44543, "ELEMENT_SET_NO": 999, "REV_AT_EPOCH": 4224, "BSTAR": 0, "MEAN_MOTION_DOT": 5e-07, "MEAN_MOTION_DDOT": 0}, "tle": {"line1": "1 44543U 19061B   25342.75008638  .00000050  00000+0  00000+0 0  9993", "line2": "2 44543  54.3989 189.1190 0006087  23.0878 334.7360  1.86227540 42241"}}, "geometry": {"type": "Point", "coordinates": [73.23479334604365, -51.47403608662287]}}, {"type": "Feature", "properties": {"norad_id": 44624, "name": "EUTELSAT 5 WEST B (EGNOS/PRN 121)", "group": "gnss", "lat": 0.018486199390260104, "lon": 148.51779510769833, "alt_km": 35791.4898950942, "timestamp": "2025-12-10T04:57:29.861713+00:00", "meta": {"OBJECT_NAME": "EUTELSAT 5 WEST B (EGNOS/PRN 121)", "OBJECT_ID": "2019-067A", "EPOCH": "2025-12-09T04:59:20.915808", "MEAN_MOTION": 1.00271075, "ECCENTRICITY": 0.0003516, "INCLINATION": 0.0644, "RA_OF_ASC_NODE": 341.3724, "ARG_OF_PERICENTER": 277.7318, "MEAN_ANOMALY": 248.9352, "EPHEMERIS_TYPE": 0, "CLASSIFICATION_TYPE": "U", "NORAD_CAT_ID": 44624, "ELEMENT_SET_NO": 999, "REV_AT_EPOCH": 2253, "BSTAR": 0, "MEAN_MOTION_DOT": -4e-07, "MEAN_MOTION_DDOT": 0}, "tle": {"line1": "1 44624U 19067A   25343.20788097 -.00000040  00000+0  00000+0 0  9994", "line2": "2 44624   0.0644 341.3724 0003516 277.7318 248.9352  1.00271075 22538"}}, "geometry": {"type": "Point", "coordinates": [148.51779510769833, 0.018486199390260104]}}, {"type": "Feature", "properties": {"norad_id": 44709, "name": "BEIDOU-3 IGSO-3 (C40)", "group": "gnss", "lat": -12.732123399709907, "lon": -86.13243611832263, "alt_km": 35963.742180311165, "timestamp": "2025-12-10T04:57:29.861725+00:00", "meta": {"OBJECT_NAME": "BEIDOU-3 IGSO-3 (C40)", "OBJECT_ID": "2019-073A", "EPOCH": "2025-11-20T07:11:22.740000", "MEAN_MOTION": 1.00250097, "ECCENTRICITY": 0.0044538, "INCLINATION": 55.163, "RA_OF_ASC_NODE": 283.159, "ARG_OF_PERICENTER": 191.5856, "MEAN_ANOMALY": 168.2409, "EPHEMERIS_TYPE": 0, "CLASSIFICATION_TYPE": "U", "NORAD_CAT_ID": 44709, "ELEMENT_SET_NO": 999, "REV_AT_EPOCH": 2236, "BSTAR": 0, "MEAN_MOTION_DOT": -2.06e-06, "MEAN_MOTION_DDOT": 0}, "tle": {"line1": "1 44709U 19073A   25324.29956875 -.00000206  00000+0  00000+0 0  9998", "line2": "2 44709  55.1630 283.1590 0044538 191.5856 168.2409  1.00250097 22360"}}, "geometry": {"type": "Point", "coordinates": [-86.13243611832263, -12.732123399709907]}}, {"type": "Feature", "properties": {"norad_id": 44793, "name": "BEIDOU-3 M22 (C44)", "group": "gnss", "lat": 54.09458775446607, "lon": 34.34708121030435, "alt_km": 21515.18284261615, "timestamp": "2025-12-10T04:57:29.861745+00:00", "meta": {"OBJECT_NAME": "BEIDOU-3 M22 (C44)", "OBJECT_ID": "2019-078A", "EPOCH": "2025-12-09T12:53:52.564416", "MEAN_MOTION": 1.86231732, "ECCENTRICITY": 0.0005656, "INCLINATION": 54.1112, "RA_OF_ASC_NODE": 306.4982, "ARG_OF_PERICENTER": 23.0294, "MEAN_ANOMALY": 336.986, "EPHEMERIS_TYPE": 0, "CLASSIFICATION_TYPE": "U", "NORAD_CAT_ID": 44793, "ELEMENT_SET_NO": 999, "REV_AT_EPOCH": 4111, "BSTAR": 0, "MEAN_MOTION_DOT": -7.7e-07, "MEAN_MOTION_DDOT": 0}, "tle": {"line1": "1 44793U 19078A   25343.53741394 -.00000077  00000+0  00000+0 0  9998", "line2": "2 44793  54.1112 306.4982 0005656  23.0294 336.9860  1.86231732 41112"}}, "geometry": {"type": "Point", "coordinates": [34.34708121030435, 54.09458775446607]}}, {"type": "Feature", "properties": {"norad_id": 44794, "name": "BEIDOU-3 M21 (C43)", "group": "gnss", "lat": -2.924417661410356, "lon": -55.69851431058818, "alt_km": 21518.605617850433, "timestamp": "2025-12-10T04:57:29.861759+00:00", "meta": {"OBJECT_NAME": "BEIDOU-3 M21 (C43)", "OBJECT_ID": "2019-078B", "EPOCH": "2025-12-09T03:18:47.736000", "MEAN_MOTION": 1.86227438, "ECCENTRICITY": 0.00038519, "INCLINATION": 54.0853, "RA_OF_ASC_NODE": 306.4778, "ARG_OF_PERICENTER": 10.0441, "MEAN_ANOMALY": 349.953, "EPHEMERIS_TYPE": 0, "CLASSIFICATION_TYPE": "U", "NORAD_CAT_ID": 44794, "ELEMENT_SET_NO": 999, "REV_AT_EPOCH": 4111, "BSTAR": 0, "MEAN_MOTION_DOT": -7.6e-07, "MEAN_MOTION_DDOT": 0}, "tle": {"line1": "1 44794U 19078B   25343.13805250 -.00000076  00000+0  00000+0 0  9996", "line2": "2 44794  54.0853 306.4778 0003851  10.0441 349.9530  1.86227438 41118"}}, "geometry": {"type": "Point", "coordinates": [-55.69851431058818, -2.924417661410356]}}, {"type": "Feature", "properties": {"norad_id": 44850, "name": "COSMOS 2544 (759)", "group": "gnss", "lat": -37.531745775805696, "lon": -79.43580417350418, "alt_km": 19103.708588779, "timestamp": "2025-12-10T04:57:29.861771+00:00", "meta": {"OBJECT_NAME": "COSMOS 2544 (759)", "OBJECT_ID": "2019-088A", "EPOCH": "2025-12-09T10:44:40.843680", "MEAN_MOTION": 2.13101756, "ECCENTRICITY": 0.0013649, "INCLINATION": 65.4583, "RA_OF_ASC_NODE": 80.0686, "ARG_OF_PERICENTER": 249.1242, "MEAN_ANOMALY": 110.7462, "EPHEMERIS_TYPE": 0, "CLASSIFICATION_TYPE": "U", "NORAD_CAT_ID": 44850, "ELEMENT_SET_NO": 999, "REV_AT_EPOCH": 4667, "BSTAR": 0, "MEAN_MOTION_DOT": -1.3e-07, "MEAN_MOTION_DDOT": 0}, "tle": {"line1": "1 44850U 19088A   25343.44769495 -.00000013  00000+0  00000+0 0  9995", "line2": "2 44850  65.4583  80.0686 0013649 249.1242 110.7462  2.13101756 46679"}}, "geometry": {"type": "Point", "coordinates": [-79.43580417350418, -37.531745775805696]}}, {"type": "Feature", "properties": {"norad_id": 44864, "name": "BEIDOU-3 M19 (C41)", "group": "gnss", "lat": -9.929444190074971, "lon": -104.26986770966707, "alt_km": 21532.729542798967, "timestamp": "2025-12-10T04:57:29.861782+00:00", "meta": {"OBJECT_NAME": "BEIDOU-3 M19 (C41)", "OBJECT_ID": "2019-090A", "EPOCH": "2025-12-09T13:03:36.528192", "MEAN_MOTION": 1.86230657, "ECCENTRICITY": 0.00178951, "INCLINATION": 56.3907, "RA_OF_ASC_NODE": 69.0668, "ARG_OF_PERICENTER": 285.5647, "MEAN_ANOMALY": 182.4392, "EPHEMERIS_TYPE": 0, "CLASSIFICATION_TYPE": "U", "NORAD_CAT_ID": 44864, "ELEMENT_SET_NO": 999, "REV_AT_EPOCH": 4070, "BSTAR": 0, "MEAN_MOTION_DOT": -4.9e-07, "MEAN_MOTION_DDOT": 0}, "tle": {"line1": "1 44864U 19090A   25343.54417278 -.00000049  00000+0  00000+0 0  9992", "line2": "2 44864  56.3907  69.0668 0017895 285.5647 182.4392  1.86230657 40708"}}, "geometry": {"type": "Point", "coordinates": [-104.26986770966707, -9.929444190074971]}}, {"type": "Feature", "properties": {"norad_id": 44865, "name": "BEIDOU-3 M20 (C42)", "group": "gnss", "lat": -54.662575023081786, "lon": -0.4045931277934644, "alt_km": 21494.200954278094, "timestamp": "2025-12-10T04:57:29.861793+00:00", "meta": {"OBJECT_NAME": "BEIDOU-3 M20 (C42)", "OBJECT_ID": "2019-090B", "EPOCH": "2025-12-09T06:01:46.671168", "MEAN_MOTION": 1.86231243, "ECCENTRICITY": 0.0014851, "INCLINATION": 56.3923, "RA_OF_ASC_NODE": 69.1112, "ARG_OF_PERICENTER": 298.012, "MEAN_ANOMALY": 63.2082, "EPHEMERIS_TYPE": 0, "CLASSIFICATION_TYPE": "U", "NORAD_CAT_ID": 44865, "ELEMENT_SET_NO": 999, "REV_AT_EPOCH": 4068, "BSTAR": 0, "MEAN_MOTION_DOT": -4.8e-07, "MEAN_MOTION_DDOT": 0}, "tle": {"line1": "1 44865U 19090B   25343.25123462 -.00000048  00000+0  00000+0 0  9999", "line2": "2 44865  56.3923  69.1112 0014851 298.0120  63.2082  1.86231243 40687"}}, "geometry": {"type": "Point", "coordinates": [-0.4045931277934644, -54.662575023081786]}}]}